STARLINK-32023          
1 60197C 24124Q   26109.64493056 -.00018369  00000+0 -61958-3 0  1094
2 60197  53.1585 132.5564 0001414  84.4808 217.3967 15.30175444    10
STARLINK-32046          
1 60198C 24124R   26109.68520833 -.00054812  00000+0 -18461-2 0  1096
2 60198  53.1564 132.1135 0001153  78.7915 213.0300 15.30240312    14
STARLINK-32049          
1 60199C 24124S   26109.60465278  .00011925  00000+0  40218-3 0  1092
2 60199  53.1582 132.6384 0001384  85.4203  46.8227 15.30163996    19
STARLINK-32002          
1 60200C 24124T   26109.65604167 -.00017017  00000+0 -57361-3 0  1099
2 60200  53.1567 132.2609 0001243  85.1310  40.0896 15.30196832    14
STARLINK-32020          
1 60201C 24124U   26109.65395833 -.00025213  00000+0 -84975-3 0  1095
2 60201  53.1573 131.9675 0001059  80.9306 184.0406 15.30205525    10
STARLINK-32041          
1 60202C 24124V   26109.67618056 -.00030624  00000+0 -10322-2 0  1099
2 60202  53.1563 132.1307 0001640  65.9138 187.7625 15.30204107    15
STARLINK-32138          
1 60255C 24131A   26109.71020833  .00037370  00000+0  12593-2 0  1095
2 60255  53.1584 222.0248 0001301  84.6576  44.4267 15.30178919    19
STARLINK-32212          
1 60256C 24131B   26109.68034722  .00051939  00000+0  17508-2 0  1092
2 60256  53.1601 222.3134 0001279  87.8396 166.8623 15.30161715    17
STARLINK-32166          
1 60257C 24131C   26109.69909722  .00057916  00000+0  19523-2 0  1095
2 60257  53.1607 222.2840 0001356  77.3595 245.7869 15.30156629    15
STARLINK-32200          
1 60258C 24131D   26109.67548611  .00049465  00000+0  16678-2 0  1098
2 60258  53.1599 222.3020 0001185  83.3679 156.1861 15.30153722    15
STARLINK-32207          
1 60259C 24131E   26109.67409722  .00048725  00000+0  16429-2 0  1090
2 60259  53.1598 222.2972 0000750  72.3669 171.1540 15.30155049    19
STARLINK-32125          
1 60260C 24131F   26109.68243056  .00052097  00000+0  17560-2 0  1093
2 60260  53.1599 221.7008 0001257  84.4152 124.2313 15.30163525    15
STARLINK-32160          
1 60261C 24131G   26109.67618056  .00050674  00000+0  17099-2 0  1095
2 60261  53.1604 222.3277 0001419  77.1832 148.8008 15.30128959    17
STARLINK-32163          
1 60262C 24131H   26109.68451389  .00050353  00000+0  16969-2 0  1090
2 60262  53.1578 221.9362 0001305  77.5485  14.6195 15.30168924    13
STARLINK-32148          
1 60263C 24131J   26109.61854167  .00016146  00000+0  54442-3 0  1096
2 60263  53.1576 222.3427 0001369  79.2134 316.9883 15.30169787    19
STARLINK-32121          
1 60264C 24131K   26109.69840278  .00053530  00000+0  18051-2 0  1096
2 60264  53.1577 222.0110 0001128  70.1612  28.8083 15.30148924    12
STARLINK-32120          
1 60265C 24131L   26109.69493056  .00050921  00000+0  16724-2 0  1091
2 60265  53.1591 222.0622 0001228  91.1646 329.5716 15.30999558    19
STARLINK-32205          
1 60266C 24131M   26109.65187500  .00035139  00000+0  11847-2 0  1097
2 60266  53.1594 222.3744 0001427  88.1459  44.5245 15.30162926    12
STARLINK-32158          
1 60267C 24131N   26109.68659722  .00054397  00000+0  18343-2 0  1096
2 60267  53.1582 221.8442 0001344  87.7019  56.6788 15.30147910    16
STARLINK-32167          
1 60268C 24131P   26109.69979167  .00057711  00000+0  19450-2 0  1099
2 60268  53.1598 221.6386 0001326  86.1266 212.3868 15.30162878    16
STARLINK-32144          
1 60269C 24131Q   26109.68034722  .00045711  00000+0  15411-2 0  1098
2 60269  53.1573 222.0218 0001302  75.6395 318.6703 15.30159136    10
STARLINK-32211          
1 60270C 24131R   26109.66090278  .00040562  00000+0  13673-2 0  1093
2 60270  53.1605 222.4371 0001263  93.6761  36.4070 15.30166697    17
STARLINK-32164          
1 60271C 24131S   26109.66020833  .00038123  00000+0  12851-2 0  1091
2 60271  53.1606 222.4733 0001230  85.8389  17.1493 15.30167843    13
STARLINK-32128          
1 60272C 24131T   26109.68451389  .00055345  00000+0  18659-2 0  1095
2 60272  53.1585 221.8229 0001281  86.2493  64.1012 15.30153591    14
STARLINK-32206          
1 60273C 24131U   26109.63590278  .00028334  00000+0  95428-3 0  1090
2 60273  53.1599 222.4823 0000946  88.3309 298.7276 15.30201441    18
STARLINK-32155          
1 60274C 24131V   26109.71090278  .00058521  00000+0  19727-2 0  1093
2 60274  53.1589 222.0540 0001164  83.5013  31.9875 15.30156706    17
STARLINK-32152          
1 60275C 24131W   26109.67270833  .00043923  00000+0  14805-2 0  1098
2 60275  53.1588 221.8402 0001364  75.5909  27.1250 15.30166101    12
STARLINK-32154          
1 60276C 24131X   26109.62409722  .00022003  00000+0  74178-3 0  1091
2 60276  53.1593 221.9948 0001345  91.0917 138.5898 15.30171493    11
STARLINK-32135          
1 60277C 24131Y   26109.62548611  .00025623  00000+0  86414-3 0  1090
2 60277  53.1579 222.1715 0001381  88.9589  55.3298 15.30158624    12
STARLINK-32156          
1 60278C 24132A   26109.70951389  .00059736  00000+0  20135-2 0  1090
2 60278  53.1587 221.8111 0001081  83.8702 215.7800 15.30159371    17
STARLINK-32010          
1 60279C 24132B   26109.70395833  .00058081  00000+0  19613-2 0  1098
2 60279  53.1586 222.1939 0001132  84.9479   3.7641 15.30100012    15
STARLINK-32118          
1 60280C 24132C   26109.65395833  .00029328  00000+0  98860-3 0  1098
2 60280  53.1596 221.9986 0001163  85.0773 303.2634 15.30172224    14
STARLINK-32038          
1 60281C 24132D   26109.65534722  .00028615  00000+0  96459-3 0  1091
2 60281  53.1591 222.0156 0001278  87.9234 296.4439 15.30172057    11
STARLINK-32113          
1 60282C 24132E   26109.61229167  .00002028  00000+0  68348-4 0  1099
2 60282  53.1589 222.2272 0001262  83.2918  57.9441 15.30183199    13
STARLINK-32037          
1 60283C 24132F   26109.66576389  .00040819  00000+0  13762-2 0  1094
2 60283  53.1577 222.1952 0001382  73.4352 252.0152 15.30160532    14
STARLINK-32123          
1 60284C 24132G   26109.70256944  .00075224  00000+0  25360-2 0  1097
2 60284  53.1599 209.2981 0001250  81.5163  66.5622 15.30146203    10
STARLINK-32122          
1 60285C 24132H   26109.67618056  .00024066  00000+0  81259-3 0  1098
2 60285  53.1580 222.0811 0001299 101.9065 315.8997 15.30119929    17
STARLINK-31656          
1 60286C 24132J   26109.63104167  .00030558  00000+0  10303-2 0  1092
2 60286  53.1603 222.0429 0000990  85.4831 211.4422 15.30166267    14
STARLINK-32114          
1 60287C 24132K   26109.62618056  .00023111  00000+0  77922-3 0  1097
2 60287  53.1593 222.5945 0001318  96.9903 259.7741 15.30168160    16
STARLINK-31997          
1 60288C 24132L   26109.64631944  .00030895  00000+0  10416-2 0  1092
2 60288  53.1601 221.8591 0001355  78.0325 355.4611 15.30166373    10
STARLINK-32000          
1 60289C 24132M   26109.63937500  .00029885  00000+0  10077-2 0  1099
2 60289  53.1573 222.3539 0000168  85.6590  76.9181 15.30160896    17
STARLINK-32141          
1 60290C 24132N   26109.66368056 -.00051032  00000+0 -17215-2 0  1090
2 60290  53.1582 222.0684 0001399  87.5081 296.3262 15.30188997    10
STARLINK-32142          
1 60291C 24132P   26109.63520833  .00029190  00000+0  98451-3 0  1091
2 60291  53.1605 221.9694 0001276  90.2404 252.9577 15.30154464    19
STARLINK-32149          
1 60292C 24132Q   26109.63520833  .00009668  00000+0  32592-3 0  1094
2 60292  53.1574 222.4072 0001277  79.8566  42.2778 15.30178729    17
STARLINK-32159          
1 60293C 24132R   26109.61784722  .00026868  00000+0  90584-3 0  1098
2 60293  53.1603 222.0259 0001380  91.3772 167.7272 15.30168008    18
STARLINK-32150          
1 60294C 24132S   26109.68034722  .00045610  00000+0  15374-2 0  1093
2 60294  53.1577 222.2318 0001058  90.4690 263.0210 15.30164992    18
STARLINK-32126          
1 60295C 24132T   26109.62965278  .00023930  00000+0  80676-3 0  1096
2 60295  53.1595 222.6006 0001388  81.6044 282.6669 15.30170665    17
STARLINK-32143          
1 60296C 24132U   26109.64006944  .00015468  00000+0  52150-3 0  1098
2 60296  53.1582 222.4531 0000865  85.3739  28.6634 15.30172616    14
STARLINK-32034          
1 60297C 24132V   26109.64145833  .00032559  00000+0  10979-2 0  1092
2 60297  53.1576 222.2969 0001022  62.5176 134.7882 15.30159845    12
STARLINK-32124          
1 60298C 24132W   26109.56923611  .00005877  00000+0  19815-3 0  1094
2 60298  53.1579 222.7697 0000928  88.8653   0.5826 15.30175196    19
STARLINK-32151          
1 60299C 24132X   26109.65118056  .00067976  00000+0  22928-2 0  1090
2 60299  53.1598 193.7237 0001317  83.8654  83.8520 15.30133088    16
STARLINK-32134          
1 60300C 24132Y   26109.65465278  .00037938  00000+0  12794-2 0  1099
2 60300  53.1583 222.1323 0001346  85.3078 237.0738 15.30152556    10
STARLINK-11147 [DTC]    
1 60301C 24133A   26109.69423611 -.00002827  00000+0 -23289-4 0  1094
2 60301  53.1570 304.3031 0000769 118.1558 160.5968 15.69707881    16
STARLINK-11128 [DTC]    
1 60302C 24133B   26109.62548611  .00045775  00000+0  37689-3 0  1091
2 60302  53.1571 304.5847 0001258 111.1973 166.5534 15.69697475    15
STARLINK-11227 [DTC]    
1 60303C 24133C   26109.60673611  .00056110  00000+0  46218-3 0  1092
2 60303  53.1571 304.6203 0001400  88.4505 111.0324 15.69681964    17
STARLINK-11224 [DTC]    
1 60304C 24133D   26109.64701389  .00031132  00000+0  25645-3 0  1099
2 60304  53.1571 304.3648 0001381  81.1342  13.8232 15.69692584    12
STARLINK-11115 [DTC]    
1 60305C 24133E   26109.65395833  .00009659  00000+0  79531-4 0  1097
2 60305  53.1573 304.2732 0001324  72.7994  89.1326 15.69714750    14
STARLINK-11109 [DTC]    
1 60306C 24133F   26109.61854167  .00043824  00000+0  36089-3 0  1096
2 60306  53.1572 304.3904 0001414  84.9215 264.4910 15.69694010    10
STARLINK-11223 [DTC]    
1 60307C 24133G   26109.67201389  .00008300  00000+0  68443-4 0  1095
2 60307  53.1574 304.0120 0000666 114.3964 232.9069 15.69678521    11
